[{"OBJECT_NAME":"HERMES-3","OBJECT_ID":"2025-052BR","EPOCH":"2026-03-09T22:30:01.073952","MEAN_MOTION":15.30039786,"ECCENTRICITY":0.00079928,"INCLINATION":97.3987,"RA_OF_ASC_NODE":324.6131,"ARG_OF_PERICENTER":112.9583,"MEAN_ANOMALY":247.2502,"EPHEMERIS_TYPE":0,"CLASSIFICATION_TYPE":"U","NORAD_CAT_ID":63835,"ELEMENT_SET_NO":999,"REV_AT_EPOCH":5486,"BSTAR":0.0006995793,"MEAN_MOTION_DOT":0.00020316,"MEAN_MOTION_DDOT":0},{"OBJECT_NAME":"STARLINK-34075","OBJECT_ID":"2025-095AD","EPOCH":"2026-03-09T07:40:17.711616","MEAN_MOTION":15.27595139,"ECCENTRICITY":0.00023405,"INCLINATION":42.9947,"RA_OF_ASC_NODE":178.088,"ARG_OF_PERICENTER":297.348,"MEAN_ANOMALY":62.7133,"EPHEMERIS_TYPE":0,"CLASSIFICATION_TYPE":"U","NORAD_CAT_ID":63917,"ELEMENT_SET_NO":999,"REV_AT_EPOCH":4772,"BSTAR":0.0010261285,"MEAN_MOTION_DOT":0.00028097,"MEAN_MOTION_DDOT":0}]
